[{"OBJECT_NAME":"STARLINK-32003","OBJECT_ID":"2024-117G","EPOCH":"2026-03-09T04:51:19.844928","MEAN_MOTION":15.3019383,"ECCENTRICITY":0.00010733,"INCLINATION":53.1616,"RA_OF_ASC_NODE":39.2575,"ARG_OF_PERICENTER":72.3058,"MEAN_ANOMALY":287.806,"EPHEMERIS_TYPE":0,"CLASSIFICATION_TYPE":"U","NORAD_CAT_ID":60097,"ELEMENT_SET_NO":999,"REV_AT_EPOCH":9681,"BSTAR":1.6603293e-5,"MEAN_MOTION_DOT":1.33e-6,"MEAN_MOTION_DDOT":0},{"OBJECT_NAME":"CZ-2F DEB","OBJECT_ID":"2022-093H","EPOCH":"2026-03-09T22:47:12.359904","MEAN_MOTION":15.21733628,"ECCENTRICITY":0.00740619,"INCLINATION":50.0217,"RA_OF_ASC_NODE":315.3952,"ARG_OF_PERICENTER":34.8084,"MEAN_ANOMALY":325.7683,"EPHEMERIS_TYPE":0,"CLASSIFICATION_TYPE":"U","NORAD_CAT_ID":53364,"ELEMENT_SET_NO":999,"REV_AT_EPOCH":19831,"BSTAR":0.00048014935,"MEAN_MOTION_DOT":0.00011557,"MEAN_MOTION_DDOT":0}]
